[{"OBJECT_NAME":"STARLINK-31715","OBJECT_ID":"2024-062L","EPOCH":"2026-03-09T18:15:29.905056","MEAN_MOTION":15.30189966,"ECCENTRICITY":0.00011183,"INCLINATION":53.1597,"RA_OF_ASC_NODE":255.2389,"ARG_OF_PERICENTER":94.7022,"MEAN_ANOMALY":265.4106,"EPHEMERIS_TYPE":0,"CLASSIFICATION_TYPE":"U","NORAD_CAT_ID":59384,"ELEMENT_SET_NO":999,"REV_AT_EPOCH":10968,"BSTAR":5.592198e-6,"MEAN_MOTION_DOT":-1.93e-6,"MEAN_MOTION_DDOT":0},{"OBJECT_NAME":"SCS-01 D","OBJECT_ID":"2025-100D","EPOCH":"2026-03-09T18:08:45.040704","MEAN_MOTION":15.31902149,"ECCENTRICITY":0.00063457,"INCLINATION":97.373,"RA_OF_ASC_NODE":145.4097,"ARG_OF_PERICENTER":266.2302,"MEAN_ANOMALY":93.8214,"EPHEMERIS_TYPE":0,"CLASSIFICATION_TYPE":"U","NORAD_CAT_ID":63985,"ELEMENT_SET_NO":999,"REV_AT_EPOCH":4562,"BSTAR":0.0010528181,"MEAN_MOTION_DOT":0.00032471,"MEAN_MOTION_DDOT":0}]
