STARLINK-31715          
1 59384U 24062L   26068.76076279 -.00000193  00000+0  55922-5 0  9990
2 59384  53.1597 255.2389 0001118  94.7022 265.4106 15.30189966109686
SCS-01 D                
1 63985U 25100D   26068.75607686  .00032471  00000+0  10528-2 0  9990
2 63985  97.3730 145.4097 0006346 266.2302  93.8214 15.31902149 45621
